CCSDS_OMM_VERS,COMMENT,CREATION_DATE,ORIGINATOR,OBJECT_NAME,OBJECT_ID,CENTER_NAME,REF_FRAME,TIME_SYSTEM,MEAN_ELEMENT_THEORY,EPOCH,MEAN_MOTION,ECCENTRICITY,INCLINATION,RA_OF_ASC_NODE,ARG_OF_PERICENTER,MEAN_ANOMALY,EPHEMERIS_TYPE,CLASSIFICATION_TYPE,NORAD_CAT_ID,ELEMENT_SET_NO,REV_AT_EPOCH,BSTAR,MEAN_MOTION_DOT,MEAN_MOTION_DDOT,SEMIMAJOR_AXIS,PERIOD,APOAPSIS,PERIAPSIS,OBJECT_TYPE,RCS_SIZE,COUNTRY_CODE,LAUNCH_DATE,SITE,DECAY_DATE,FILE,GP_ID,TLE_LINE0,TLE_LINE1,TLE_LINE2,NORAD_KEY,JCAT,DeepCat,Satcat,Piece,Active,Type,Name,LDate,Parent,Owner,State,SDate,ExpandedStatus,DDate,ODate,Period,Perigee,PF,Apogee,AF,Inc,IF,OpOrbit,SATCAT_KEY
3.0,GENERATED VIA SPACE-TRACK.ORG API,2026-05-06T14:56:52,18 SPCS,SIRIUS 3,1998-056B,EARTH,TEME,UTC,SGP4,2026-05-06T07:14:38.778144,0.99032718,0.0002283,11.7157,34.6861,19.5314,182.7617,0,U,25492,999,10070,0.00000000000000,-0.00000008,0.0000000000000,42515.704,1454.065,36147.275,36127.863,PAYLOAD,LARGE,SES,1998-10-05,FRGUI,,5177564,322306985,0 SIRIUS 3,1 25492U 98056B   26126.30183771 -.00000008  00000-0  00000+0 0  9995,2 25492  11.7157  34.6861 0002283  19.5314 182.7617  0.99032718100701,25492,S25492,-,25492,1998-056B,P,P,Sirius 3,1998 Oct  5,S25493,SESS,S,1998 Oct  5 2316,In Earth orbit,-,2026 May  5 ,    1454.063 ,   36127, ,   36147, , 11.71 , ,GEO/ID,25492
3.0,GENERATED VIA SPACE-TRACK.ORG API,2026-05-06T14:56:52,18 SPCS,THOR 3,1998-035A,EARTH,TEME,UTC,SGP4,2026-05-06T12:47:42.191808,0.98827196,0.0002827,11.7215,39.3621,209.4877,57.3895,0,U,25358,999,10207,0.00000000000000,0.00000038,0.0000000000000,42574.628,1457.089,36208.529,36184.457,PAYLOAD,LARGE,NOR,1998-06-10,AFETR,,5177559,322307416,0 THOR 3,1 25358U 98035A   26126.53312722  .00000038  00000-0  00000+0 0  9990,2 25358  11.7215  39.3621 0002827 209.4877  57.3895  0.98827196102079,25358,S25358,-,25358,1998-035A,P,P,Thor III,1998 Jun 10,S25360,TNOR,N,1998 Jun 10 0150,In Earth orbit,-,2026 May  5 ,    1457.089 ,   36184, ,   36208, , 11.72 , ,GEO/ID,25358
3.0,GENERATED VIA SPACE-TRACK.ORG API,2026-05-06T14:56:52,18 SPCS,INTELSAT 704,1995-001A,EARTH,TEME,UTC,SGP4,2026-05-06T09:06:18.503712,0.99178667,0.0008192,11.7889,36.0115,164.7231,31.332,0,U,23461,999,11406,0.00000000000000,0.00000074,0.0000000000000,42473.984,1451.925,36130.643,36061.054,PAYLOAD,LARGE,ITSO,1995-01-10,AFETR,,5177508,322305217,0 INTELSAT 704,1 23461U 95001A   26126.37938083  .00000074  00000-0  00000+0 0  9999,2 23461  11.7889  36.0115 0008192 164.7231  31.3320  0.99178667114069,23461,S23461,-,23461,1995-001A,P,P,INTELSAT 704,1995 Jan 10,S23462,SESINTU,US,1995 Jan 10 0646?,In Earth orbit,-,2026 May  4 ,    1451.932 ,   36061, ,   36130, , 11.79 , ,GEO/ID,23461
3.0,GENERATED VIA SPACE-TRACK.ORG API,2026-05-06T10:08:52,18 SPCS,KAZSAT 1,2006-022A,EARTH,TEME,UTC,SGP4,2026-05-06T04:13:35.533344,0.99231998,0.00038188,11.7933,36.3186,211.2783,324.7379,0,U,29230,999,7222,0.00000000000000,-0.00000128,0.0000000000000,42458.764,1451.145,36096.844,36064.415,PAYLOAD,LARGE,KAZ,2006-06-17,TTMTR,,5176958,322267147,0 KAZSAT 1,1 29230U 06022A   26126.17610571 -.00000128  00000-0  00000-0 0  9993,2 29230  11.7933  36.3186 0003819 211.2783 324.7379  0.99231998 72222,29230,S29230,-,29230,2006-022A,P,P,Kazsat,2006 Jun 17,S29231,KAZK,KZ,2006 Jun 18 0532,In Earth orbit,-,2026 May  4 ,    1451.136 ,   36064, ,   36096, , 11.79 , ,GEO/ID,29230
3.0,GENERATED VIA SPACE-TRACK.ORG API,2026-05-06T02:32:52,18 SPCS,NIGCOMSAT 1,2007-018A,EARTH,TEME,UTC,SGP4,2026-05-05T20:56:07.736064,1.00211071,0.00035403,11.7985,33.2019,99.393,137.9182,0,U,31395,999,6963,0.00000000000000,-0.00000244,0.0000000000000,42181.761,1436.967,35818.559,35788.692,PAYLOAD,LARGE,NIG,2007-05-13,XSC,,5176277,322219585,0 NIGCOMSAT 1,1 31395U 07018A   26125.87231176 -.00000244  00000-0  00000-0 0  9999,2 31395  11.7985  33.2019 0003540  99.3930 137.9182  1.00211071 69635,31395,S31395,-,31395,2007-018A,P,P,Nigcomsat 1,2007 May 13,S31396,NGCOM,NG,2007 May 13 1626?,In Earth orbit,-,2026 May  4 ,    1436.962 ,   35788, ,   35818, , 11.80 , ,GEO/ID,31395
3.0,GENERATED VIA SPACE-TRACK.ORG API,2026-05-06T14:56:52,18 SPCS,USA 148,2000-001A,EARTH,TEME,UTC,SGP4,2026-05-06T12:25:02.991072,0.99115159,0.0006094,11.8397,32.7678,19.8364,144.1354,0,U,26052,999,3250,0.00000000000000,-0.00000295,0.0000000000000,42492.125,1452.855,36139.885,36088.096,PAYLOAD,LARGE,US,2000-01-21,AFETR,,5177580,322307184,0 USA 148,1 26052U 00001A   26126.51739573 -.00000295  00000-0  00000+0 0  9999,2 26052  11.8397  32.7678 0006094  19.8364 144.1354  0.99115159 32501,26052,S26052,-,26052,2000-001A,P,P ------c,DSCS III B-8,2000 Jan 21,S26053,SFSSC/DISA,US,2000 Jan 21 0129,In Earth orbit,-,2026 May  4 ,    1452.850 ,   36087, ,   36140, , 11.84 , ,GEO/ID,26052
3.0,GENERATED VIA SPACE-TRACK.ORG API,2026-05-06T14:56:52,18 SPCS,THAICOM 1,1993-078B,EARTH,TEME,UTC,SGP4,2026-05-06T13:13:55.833888,0.99184923,0.0004175,11.8475,35.1255,226.8947,352.9939,0,U,22931,999,4575,0.00000000000000,-0.00000068,0.0000000000000,42472.198,1451.834,36111.795,36076.331,PAYLOAD,MEDIUM,THAI,1993-12-18,FRGUI,,5177491,322305504,0 THAICOM 1,1 22931U 93078B   26126.55134067 -.00000068  00000-0  00000+0 0  9996,2 22931  11.8475  35.1255 0004175 226.8947 352.9939  0.99184923 45757,22931,S22931,-,22931,1993-078B,P,P,Thaicom 1,1993 Dec 18,S22932,THAIC,T,1993 Dec 18 0152,In Earth orbit,-,2026 May  4 ,    1451.845 ,   36076, ,   36112, , 11.84 , ,GEO/ID,22931
3.0,GENERATED VIA SPACE-TRACK.ORG API,2026-05-06T14:56:52,18 SPCS,RADUGA 23,1989-030A,EARTH,TEME,UTC,SGP4,2026-05-06T11:57:54.357120,1.00228534,0.0018768,11.8529,332.2623,207.4121,336.9721,0,U,19928,999,13443,0.00000000000000,-0.00000362,0.0000000000000,42176.861,1436.717,35877.884,35719.569,PAYLOAD,LARGE,CIS,1989-04-14,TTMTR,,5177402,322303392,0 RADUGA 23,1 19928U 89030A   26126.49854580 -.00000362  00000-0  00000+0 0  9990,2 19928  11.8529 332.2623 0018768 207.4121 336.9721  1.00228534134436,19928,S19928,-,19928,1989-030A,P,P,Raduga,1989 Apr 14,S19931,VVKOV,SU,1989 Apr 14 1044?,In Earth orbit,-,2026 May  5 ,    1436.706 ,   35719, ,   35877, , 11.85 , ,GEO/ID,19928
3.0,GENERATED VIA SPACE-TRACK.ORG API,2026-05-06T02:32:52,18 SPCS,ARABSAT 3A,1999-009A,EARTH,TEME,UTC,SGP4,2026-05-05T10:44:07.279872,1.00148412,0.00068124,11.8678,32.835,346.3168,210.5811,0,U,25638,999,9953,0.00000000000000,0.00000119,0.0000000000000,42199.353,1437.866,35849.966,35792.471,PAYLOAD,LARGE,AB,1999-02-26,FRGUI,,5176277,322216166,0 ARABSAT 3A,1 25638U 99009A   26125.44730648  .00000119  00000-0  00000-0 0  9994,2 25638  11.8678  32.8350 0006812 346.3168 210.5811  1.00148412 99531,25638,S25638,-,25638,1999-009A,P,P,Arabsat 3A,1999 Feb 26,S25640,ARAB,I-ARAB,1999 Feb 26 2304,In Earth orbit,-,2026 May  4 ,    1437.872 ,   35792, ,   35850, , 11.87 , ,GEO/ID,25638
3.0,GENERATED VIA SPACE-TRACK.ORG API,2026-05-06T10:08:52,18 SPCS,EUTE 48A (HB2),1996-067A,EARTH,TEME,UTC,SGP4,2026-05-06T04:14:35.437056,0.98380894,0.00029344,11.8859,36.0962,132.1986,47.9856,0,U,24665,999,10764,0.00000000000000,-0.00000075,0.0000000000000,42703.29,1463.699,36337.685,36312.624,PAYLOAD,LARGE,EUTE,1996-11-21,AFETR,,5176958,322265202,0 EUTE 48A (HB2),1 24665U 96067A   26126.17679904 -.00000075  00000-0  00000-0 0  9994,2 24665  11.8859  36.0962 0002934 132.1986  47.9856  0.98380894107647,24665,S24665,-,24665,1996-067A,P,P,EUTELSAT 48A,1996 Nov 21,S24666,EUTSA,F,1996 Nov 21 2115?,In Earth orbit,-,2026 May  4 ,    1463.691 ,   36312, ,   36337, , 11.88 , ,GEO/ID,24665
3.0,GENERATED VIA SPACE-TRACK.ORG API,2026-05-06T02:32:52,18 SPCS,ECHOSTAR 5,1999-050A,EARTH,TEME,UTC,SGP4,2026-05-05T20:55:12.000288,0.98744251,0.00042897,11.8901,36.4451,346.4109,238.6375,0,U,25913,999,9645,0.00000000000000,0.00000013,0.0000000000000,42598.466,1458.313,36238.605,36202.057,PAYLOAD,LARGE,US,1999-09-23,AFETR,,5176277,322216727,0 ECHOSTAR 5,1 25913U 99050A   26125.87166667  .00000013  00000-0  00000-0 0  9990,2 25913  11.8901  36.4451 0004290 346.4109 238.6375  0.98744251 96455,25913,S25913,-,25913,1999-050A,P,P,Echostar V,1999 Sep 23,S25914,DISHE,US,1999 Sep 23 0630,In Earth orbit,-,2026 May  4 ,    1458.308 ,   36201, ,   36238, , 11.89 , ,GEO/ID,25913
3.0,GENERATED VIA SPACE-TRACK.ORG API,2026-05-06T14:46:56,18 SPCS,EUTE 1-F1 (ECS 1),1983-058A,EARTH,TEME,UTC,SGP4,2026-05-05T18:00:34.432992,0.98871761,0.0008272,11.8912,330.0386,164.9955,194.9616,0,U,14128,999,4629,0.00000000000000,-0.00000093,0.0000000000000,42561.833,1456.432,36218.906,36148.491,PAYLOAD,LARGE,EUTE,1983-06-16,FRGUI,,5177257,322300577,0 EUTE 1-F1 (ECS 1),1 14128U 83058A   26125.75039853 -.00000093  00000-0  00000+0 0  9998,2 14128  11.8912 330.0386 0008272 164.9955 194.9616  0.98871761 46295,14128,S14128,-,14128,1983-058A,P,P,ECS 1,1983 Jun 16,S14151,ESA,I-ESA,1983 Jun 16 1215,In Earth orbit,-,2026 May  4 ,    1456.438 ,   36148, ,   36218, , 11.89 , ,GEO/ID,14128
3.0,GENERATED VIA SPACE-TRACK.ORG API,2026-05-06T14:56:52,18 SPCS,ECHOSTAR 2,1996-055A,EARTH,TEME,UTC,SGP4,2026-05-06T05:52:59.917152,1.00342272,0.001065,11.9016,31.8988,85.8961,107.9786,0,U,24313,999,10859,0.00000000000000,-0.00000214,0.0000000000000,42144.983,1435.088,35811.733,35721.964,PAYLOAD,LARGE,US,1996-09-11,FRGUI,,5177531,322306515,0 ECHOSTAR 2,1 24313U 96055A   26126.24513793 -.00000214  00000-0  00000+0 0  9996,2 24313  11.9016  31.8988 0010650  85.8961 107.9786  1.00342272108591,24313,S24313,-,24313,1996-055A,P,P,Echostar II,1996 Sep 11,S24314,DISHE,US,1996 Sep 11 0021,In Earth orbit,-,2026 May  5 ,    1435.085 ,   35722, ,   35811, , 11.90 , ,GEO/ID,24313
